Company Name,Address,City,State,ZIP Code,Phone Number Combined,Website
Alaska Center For,621 W 6th Ave,Anchorage,AK,99501,(907) 263-2900,Alaskapac.Org
Laff House Comedy Spot,3504 Stringfield Rd NW,Huntsville,AL,35810,(256) 213-7506,
Stand Up Live,2012 Memorial Pkwy SW,Huntsville,AL,35801,(256) 261-3374,
Loony Bin Comedy Club,10301 N Rodney Parham Rd # C12,Little Rock,AR,72227,(501) 228-5555,Loonybincomedy.Com
Comedy Spot,7117 E 3rd Ave,Scottsdale,AZ,85251,(480) 945-4422,Thecomedyspot.Net
House Of Comedy LLC,5350 E High St # 105,Phoenix,AZ,85054,(480) 420-3553,Az.Houseofcomedy.Net
Improv,930 E University Dr # D201,Tempe,AZ,85281,(480) 921-9877,Tempeimprov.Com
Laffs Comedy Caffe,2900 E Broadway Blvd # 154,Tucson,AZ,85716,(520) 323-8669,Laffstucson.Com
Rick Bronson's House Of Comedy,5350 E High St # 105,Phoenix,AZ,85054,(480) 420-3553,Azhouseofcomedy.Net
Stand Up Live,50 W Jefferson St # 200,Phoenix,AZ,85003,(914) 497-2404,Standuplive.Com
Tempe Improv Comedy Theatre,930 E University Dr,Tempe,AZ,85281,(480) 921-9877,Tempeimprov.Com
Theater 168,7117 E Mcdowell Rd,Scottsdale,AZ,85257,(480) 423-0120,Jesterzimprov.Com
Venue Scottsdale,7117 E 3rd Ave # 104,Scottsdale,AZ,85251,(480) 945-5551,Homestead.Com
Acme Comedy Theatre,135 N LA Brea Ave,Los Angeles,CA,90036,(323) 525-0202,Acmetheatres.Org
Acme Comedy Theatre,5124 Lankershim Blvd,North Hollywood,CA,91601,(818) 985-5045,Acmetheatres.Org
Actors Comedy Studio,7461 Beverly Blvd # 202,Los Angeles,CA,90036,(323) 302-9152,Actorscomedystudio.Com
American Comedy Co,818 6th Ave # B,San Diego,CA,92101,(619) 795-3858,Americancomedyco.Com
Blacktop Comedy,3101 Sunset Blvd # 3a,Rocklin,CA,95677,(916) 749-3100,Blacktopcomedy.Com
Brea Improv,120 S Brea Blvd,Brea,CA,92821,(714) 482-0700,Improv.Com
Center Soft Corp,68910 Adelina Rd,Cathedral City,CA,92234,(760) 327-6618,Centersoft.Info
Comedy & Magic Club,1018 Hermosa Ave,Hermosa Beach,CA,90254,(310) 372-1193,Comedyandmagicclub.Com
Comedy Central Stage,6539 Santa Monica Blvd,Los Angeles,CA,90038,(323) 462-2400,
Comedy Club Inc,8162 Melrose Ave,Los Angeles,CA,90046,(323) 651-2583,Improv.Com
Comedy Club Oxnard LLC,6701 Center Dr W # 1111,Los Angeles,CA,90045,Not Available,
Comedy Palace,8878 Clairemont Mesa Blvd # D,San Diego,CA,92123,(858) 492-9000,Comedypalace.Com
Comedy Sportz,733 Seward St,Los Angeles,CA,90038,(323) 856-4796,Cszla.Com
Comedy Sportz,1549 Hilton Ct,San Jose,CA,95130,(408) 985-5233,Comedysportzsanjose.Com
Comedy Store,8433 W Sunset Blvd,West Hollywood,CA,90069,(323) 650-6268,Thecomedystore.Com
Comedy Store-LA Jolla,916 Pearl St,La Jolla,CA,92037,(858) 454-9176,Comedystore.Com
Comedy Union,5040 W Pico Blvd,Los Angeles,CA,90019,(323) 934-9300,
Comedysportz,2230 Arden Way,Sacramento,CA,95825,(916) 243-8541,Cszsacramento.Com
Endgames Improv,414 Mason St,San Francisco,CA,94102,(415) 627-8147,Endgamesimprov.Com
Flappers Comedy Club,532 W 1st St # 218,Claremont,CA,91711,(818) 845-9721,Flapperscomedy.Com
Flappers Comedy Club-Burbank,102 E Magnolia Blvd,Burbank,CA,91502,(818) 845-9721,Flapperscomedy.Com
Gail A Stocker Presents,1025 N Kings Rd # 113,West Hollywood,CA,90069,(323) 654-4015,Comedycontact.Com
Hollywood California Improv,8162 Melrose Ave,Los Angeles,CA,90046,(323) 651-2583,Improv.Com
Improv Comedy Club,120 S Brea Blvd,Brea,CA,92821,(303) 307-1777,Improvclubs.Com
Improv Comedy Club,623 Spectrum Center Dr,Irvine,CA,92618,(949) 854-5455,Irvine.Improv.Com
Improv Comedy Club,62 S 2nd St,San Jose,CA,95113,(408) 280-7475,Improv.Com
Improve Comedy Club,4555 Mills Cir,Ontario,CA,91764,(909) 484-5411,
J R's Comedy Club,27630 The Old Rd,Valencia,CA,91355,(661) 259-2291,Comedyinvalencia.Com
J Spot,5581 W Manchester Ave,Los Angeles,CA,90045,(310) 337-9057,Jspotcomedyclub.Com
Kung Pao Kosher Comedy,772 Pacific Ave,San Francisco,CA,94133,(415) 522-3737,Koshercomedy.Com
Lab At Hollywood Improv,8156 Melrose Ave,Los Angeles,CA,90046,(323) 651-2583,Improv.Com
Laugh Factory,151 S Pine Ave,Long Beach,CA,90802,(562) 495-2844,Laughfactory.Com
Laugh Factory,8001 W Sunset Blvd,Los Angeles,CA,90046,(323) 656-1336,Laughfactory.Com
Laughs Unlimited,1207 Front St # 16,Sacramento,CA,95814,(916) 446-8128,Laughsunlimited.Com
Levity Live,591 Collection Blvd,Oxnard,CA,93036,(310) 417-4800,Levitylive.Com
Mad House Comedy Club,502 Horton Plz,San Diego,CA,92101,(619) 702-6666,Madhousecomedyclub.Com
Made Up Theatre,3392 Seldon Ct,Fremont,CA,94539,(510) 573-3633,Madeuptheatre.Com
Money Is Funny,1207 Front St # 16,Sacramento,CA,95814,(916) 446-8128,Laughsunlimited.Com
National Comedy Theatre,3717 India St,San Diego,CA,92103,(619) 295-4999,Nationalcomedy.Com
Pan Theater,2135 Broadway,Oakland,CA,94612,(415) 724-2433,Pantheater.Com
Punch Line Comedy Club Sf,444 Battery St,San Francisco,CA,94111,(415) 397-7573,Punchlinecomedyclub.Com
Punch Line Comedy Club-Scrmnt,2100 Arden Way # 225,Sacramento,CA,95825,(916) 925-5500,
Punch Line Comedy Club-Scrmnt,2100 Arden Way # 225,Sacramento,CA,95825,(916) 925-5500,Punchlinesac.Com
Rooster T Feathers Comedy Club,157 W El Camino Real,Sunnyvale,CA,94087,(408) 736-0921,Roostertfeathers.Com
Russian Comedy LA,1670 Manning Ave,Los Angeles,CA,90024,(858) 405-0642,Rcc-La.Com
Sacramento Comedy Spot,1050 20th St # 130,Sacramento,CA,95811,(916) 444-3137,Sacstandup.Com
Sacramento Comedy Spot,1716 Broadway,Sacramento,CA,95818,(916) 444-3137,Saccomedyspot.Com
San Francisco Comedy College,414 Mason St,San Francisco,CA,94102,(415) 921-2051,Sfcomedycollege.Com
Stand Up With Comedy,4466 Sherman Oaks Cir,Sherman Oaks,CA,91403,Not Available,
Stella Adler Academy Of Acting,6773 Hollywood Blvd,Los Angeles,CA,90028,(323) 465-4446,Stellaadler-La.Com
Stillspeaking Theatre,2560 Huntington Dr,San Marino,CA,91108,(626) 292-2081,Sanmarinoucc.Org
Tommy T's Comedy & Dinner,12401 Folsom Blvd # 111,Rancho Cordova,CA,95742,(916) 608-2233,
Tommy T's Comedy-Steakhouse,5104 Hopyard Rd,Pleasanton,CA,94588,(925) 227-1800,Tommyts.Com
Upright Citizens Brigade,5419 W Sunset Blvd # 1,Los Angeles,CA,90027,(323) 462-2941,
Upright Citizens Brigade Thtr,5419 W Sunset Blvd # 1,Los Angeles,CA,90027,(323) 908-8702,
Uptown Theatre Napa,1350 Third St,Napa,CA,94559,(707) 259-0123,Uptowntheatrenapa.Com
Ventura Harbor Comedy Club,1559 Spinnaker Dr # 205a,Ventura,CA,93001,(805) 644-1500,Venturaharborcomedyclub.Com
Westside Comedy Theatre,1323-A 3rd Street Promenade,Santa Monica,CA,90401,(310) 451-0850,Westsidecomedy.Com
Winstons Beach Club,1921 Bacon St,San Diego,CA,92107,(619) 222-6822,Winstonsob.Com
Comedy Works Events,5345 Landmark Pl,Greenwood Village,CO,80111,(720) 274-6886,Comedyworks.Com
Comedy Works Inc,1163 S Cherokee St,Denver,CO,80223,(720) 476-5522,
Denver Improv,8246 E Northfield Blvd # 1400,Denver,CO,80238,(303) 307-1777,Denver.Improv.Com
Improv Comedy Club,8246 E Northfield Blvd # 1400,Denver,CO,80238,(303) 307-1777,Symfonee.Com
Impulse Theater,1634 18th St,Denver,CO,80202,(303) 297-2111,Impulsetheater.Com
Loonees Comedy Corner,1305 N Academy Blvd,Colorado Springs,CO,80909,(719) 591-0707,Looneescc.Wixsite.Com
Slate Entertainment,4003 W 14th Street Rd,Greeley,CO,80634,(970) 515-5755,
Voodoo Comedy Playhouse,1260 22nd St,Denver,CO,80205,(720) 502-5471,Voodoocomedy.Com
Brew Ha Ha Comedy Club,942 Main St,Hartford,CT,06103,(860) 241-0271,Citysteambrewerycafe.Com
Hartford Funny Bone,194 Buckland Hills Dr,Manchester,CT,06042,(860) 432-8600,Hartfordfunnybone.Com
MIDLIFEMELTDOWNCOMEDY.COM,46 Midrocks Dr,Norwalk,CT,06851,(203) 847-4315,Midlifemeltdowncomedy.Com
Red Room Grille,575 N Colony St,Meriden,CT,06450,(203) 235-3172,Alcatrazburger.Com
Treehouse Comedy Productions,356 W Woods Rd,Hamden,CT,06518,(203) 230-8700,Treehousecomedyproductions.Com
Improv Comedy Club,1140 Connecticut Ave NW # 7,Washington,DC,20036,(202) 296-7008,
Topaz Thursday Comedy Night,1733 N St NW,Washington,DC,20036,(202) 331-8599,
Boca Black Box,8221 Glades Rd # 10,Boca Raton,FL,33434,(561) 483-9036,Bocablackbox.Com
Bonkerz Comedy Club,6405 S US Highway 17/92,Fern Park,FL,32730,(407) 629-2665,Bonkerzcomedyproductions.Com
Bonkerz Comedy Club,5006 Adanson St,Orlando,FL,32804,(407) 629-2665,Bonkerzcomedy.Com
Bonkerz Comedy Club,,Winter Park,FL,32789,(407) 622-5653,
Cabinets On Demand,5538 Western Way,Lake Worth,FL,33463,(561) 557-9429,
Coconut's Comedy Club,6100 Gulf Blvd,Saint Pete Beach,FL,33706,(727) 360-7935,Coconutscomedyclubs.Com
Comedy-Banquet Ctr-Jcksnvll,11000 Beach Blvd # 8,Jacksonville,FL,32246,(904) 646-4277,Jacksonvillecomedy.Com
Craiglows Comedy Store,15800 SW 25th St,Miramar,FL,33027,(754) 465-5945,
Creative Veins,1662 Stockton St # 201,Jacksonville,FL,32204,(904) 323-2471,Creativeveins.Com
Florida Comedy Club,809 NE 17th St,Fort Lauderdale,FL,33305,(954) 806-9799,Floridacomedyclub.Com
Florida Comedy Club,901 S Federal Hwy # 2,Hallandale Beach,FL,33009,(954) 806-9799,Floridacomedyclub.Com
Fort Lauderdale Improv,5700 Seminole Way,Davie,FL,33314,(954) 981-5653,Improvftl.Com
Gigi's Restaurant,3130 Hartley Rd,Jacksonville,FL,32257,(904) 694-4300,Jaxramada.Com
Improv Comedy Club,5700 Seminole Way,Davie,FL,33314,(954) 981-5653,Improvftl.Com
Improv Comedy Club,9101 International Dr # 2310,Orlando,FL,32819,(407) 480-5233,
Improv Comedy Club,1600 E 8th Ave # C112,Tampa,FL,33605,(813) 864-4000,Improvtampa.Com
Improv Comedy Club,550 S Rosemary Ave # 250,West Palm Beach,FL,33401,(561) 833-1812,
Laugh In Comedy Cafe,8595 College Pkwy # 270,Fort Myers,FL,33919,(239) 479-5233,Laughincomedycafe.Com
Mccurdys Comedy Theatre,1923 Ringling Blvd,Sarasota,FL,34236,(941) 360-6752,Mccurdyscomedy.Com
Miami Improv Corp,,Miami,FL,33147,(305) 693-8669,Miamiimprov.Com
Monsters Inc Laugh Floor,1180 Seven Seas Dr,Orlando,FL,32830,(407) 939-5277,
Off The Hook Comedy Club,2500 Vanderbilt Beach Rd #1100,Naples,FL,34109,(239) 389-6901,Offthehookcomedy.Com
Ramada-Jacksonville,3130 Hartley Rd,Jacksonville,FL,32257,(904) 256-9816,Ramada.Com
SAK Comedy Lab,29 S Orange Ave,Orlando,FL,32801,(407) 648-0001,Sakcomedylab.Com
Sick Puppies Comedies,,Coral Gables,FL,33133,(305) 461-1161,
Sick Puppies Comedy,7200 Camino Real # 330,Boca Raton,FL,33433,(954) 667-7735,Sickpuppiescomedy.Com
Side Splitters Comedy Club-Tmp,12938 N Dale Mabry Hwy,Tampa,FL,33618,(813) 960-1197,Sidesplitterscomedy.Com
Snappers Grill & Comedy Club,36657 US Highway 19 N,Palm Harbor,FL,34684,(727) 938-2027,Snappersgrill.Com
South Andrews Properties,1501 S Andrews Ave,Fort Lauderdale,FL,33316,(754) 206-4568,
Spacebar,2428 E Robinson St,Orlando,FL,32803,(407) 228-0804,
Stoked,34 Harbor Blvd,Destin,FL,32541,(850) 460-8780,Thestokedshow.Com
Visani Restaurant,2400 Kings Hwy,Punta Gorda,FL,33980,(941) 764-3463,Visani.Net
Visani Theater,2400 Kings Hwy,Port Charlotte,FL,33980,(941) 625-2844,Visani.Net
Visani Theatre,23494 Westchester Blvd,Punta Gorda,FL,33980,(941) 629-9191,
Atlanta Comedy Theater,4650 Jimmy Carter Blvd # 114b,Norcross,GA,30093,(770) 724-6400,Atlcomedytheater.Com
Basement Theatre,175 W Wieuca Rd NE # B1,Atlanta,GA,30342,(404) 277-3071,Thebasementtheatre.Com
Improv Comedy Club,56 E Andrews Dr NW # 16,Atlanta,GA,30305,(678) 244-3612,
Laughing Skull Lounge,878 Peachtree St NE,Atlanta,GA,30309,(404) 875-1667,Static.Vendini.Com
Phat Comedy,124 Summit Springs Dr,Atlanta,GA,30350,(404) 944-2718,Phatcomedy.Com
Punchline,280 Hilderbrand Dr,Atlanta,GA,30328,(404) 252-5233,
Punchline,3652 Roswell Rd NE,Atlanta,GA,30342,(404) 252-5233,Punchline.Com
Relapse Theatre,380 14th St NW,Atlanta,GA,30318,(404) 343-0347,Relapsecomedy.Com
Village Theatre,349 Decatur St SE # L,Atlanta,GA,30312,(404) 688-8858,
Whole World Theatre,1216 Spring St NW,Atlanta,GA,30309,(404) 817-0880,Wholeworldtheatre.Com
Sharkey's Comedy Club,99-016 Kamehameha Hwy,Aiea,HI,96701,(808) 531-4242,Hawaiicomedytheater.Com
Funny Bone Entertainment,560 S Prairie View Dr # 100,West Des Moines,IA,50266,(515) 270-2000,Funnybonedm.Co
Joker's Night Club & Comedy,401 Main St,Cedar Falls,IA,50613,(319) 266-1132,Barmuda.Com
Penguin's Comedy Club,208 2nd Ave SE,Cedar Rapids,IA,52401,(319) 362-8133,Penguinscomedyclub.Com
Csz Boise Comedy Sportz,4619 W Emerald St,Boise,ID,83706,(208) 991-4746,Boisecomedy.Com
Annoyance Theatre & Bar,851 W Belmont Ave # 2,Chicago,IL,60657,(773) 697-9693,Theannoyance.Com
Chicago Underground Comedy,2100 W Belmont Ave,Chicago,IL,60618,(773) 281-4444,Beatkitchen.Com
Comedy Bar,157 W Ontario St,Chicago,IL,60654,(773) 387-8412,Comedybar.Com
Comedy Shrine,4034 Fox Valley Center Dr,Aurora,IL,60504,(630) 585-0300,Comedyshrine.Com
Comedy Sportz,1818 3rd Ave,Rock Island,IL,61201,(309) 786-7733,Circa21.Com
Donnie Bs Comedy Club,925 E Saint Joseph St,Springfield,IL,62703,(217) 391-5653,Donniebscomedyclub.Com
Funny Bone,2937 W White Oaks Dr # A,Springfield,IL,62704,(217) 391-5653,Donniebscomedyclub.Com
Funny Bone Comedy Club,2520 Winfield Dr,Springfield,IL,62704,(217) 391-5653,
Hey Guys I Like Talking To You,5225 N Illinois St,Fairview Heights,IL,62208,(618) 416-6434,
Improv Comedy Club,K120b Woodfield Mall,Schaumburg,IL,60173,(847) 240-2001,Improv.Com
Improv Unlimited,1107 Lake St # 1,Oak Park,IL,60301,(313) 620-4002,Comedysuperstarsoftomorrow.Com
Io,1501 N Kingsbury St,Chicago,IL,60642,(773) 880-0199,
Io Theater,1501 N Kingsbury St,Chicago,IL,60642,(312) 929-2401,Ioimprov.Com
Jukebox Comedy Club,3527 W Farmington Rd,Peoria,IL,61604,(309) 673-5853,Jukeboxcomedy.Com
Laugh Factory-Chicago,3175 N Broadway St,Chicago,IL,60657,(773) 327-3175,Laughfactory.Com
Laughing Chameleon,1830 Tower Dr,Glenview,IL,60026,(847) 834-0249,Laughingchameleon.Com
Mason City Limits Comedy Clubs,114 E Chestnut St,Mason City,IL,62664,(217) 482-5233,Mclimits.Com
Riddles Comedy Club,5055 W 111th St,Alsip,IL,60803,(708) 422-5055,Myriddlescomedyclub.Com
Second City,1616 N Wells St,Chicago,IL,60614,(312) 337-3992,Secondcity.Com
Under The Gun Theater,3435 N Sheffield Ave # 204,Chicago,IL,60657,(773) 270-3440,
Under The Gun Theater,956 W Newport Ave # 204,Chicago,IL,60657,(773) 270-3440,
Up Comedy Club,230 W North Ave # 3,Chicago,IL,60610,(312) 662-4562,Upcomedyclub.Com
Zanie's Comedy Club,5437 Park Pl,Des Plaines,IL,60018,(847) 813-0484,Zanies.Com
Zanies Comedy Clubs Inc,1548 N Wells St,Chicago,IL,60610,(312) 337-4027,Zanies.Com
Zanies Comedy Night Club,5437 Park Pl,Des Plaines,IL,60018,(847) 813-0484,Zanies.Com
Zanies Comedy Night Club,4051 E Main St,Saint Charles,IL,60174,(630) 584-6342,Zanies.Com
Crackers Comedy Club,207 N Delaware St,Indianapolis,IN,46204,(317) 631-3536,Crackerscomedy.Com
Csz Indianapolis,721 Massachusetts Ave,Indianapolis,IN,46204,(317) 951-8499,Indycomedysportz.Com
Funny Bone Comedy Club,100 N Center St # 39,Mishawaka,IN,46544,(574) 254-9999,Laughcomedyclub.Com
In These Last Days God's Cmdy,8542 Woods Edge West Dr,Indianapolis,IN,46250,(317) 993-9567,
Laugh Comedy Club,225 Toscana Blvd,Granger,IN,46530,(574) 299-9999,Laughcomedyclub.Com
Morty's Comedy Joint,3824 E 82nd St,Indianapolis,IN,46240,(317) 848-5500,Mortyscomedy.Com
Snickerz Comedy Bar,5535 Saint Joe Rd,Fort Wayne,IN,46835,(260) 486-0216,Snickerzcomedyclub.Biz
The Comedy Attic,123 S Walnut St,Bloomington,IN,47408,(812)336-5233,http://www.comedyattic.com/
Loony Bin Comedy Club,6140 E 21st St N,Wichita,KS,67208,(316) 618-4242,Loonybincomedy.Com
Stanford's Comedy Club,1867 Village West Pkwy # D201,Kansas City,KS,66111,(816) 569-2671,Stanfordscomedyclub.Com
Improv Comedy Club,441 S 4th St,Louisville,KY,40202,(502) 581-1332,Improv.Com
Improv Comedy Club,441 S 4th St,Louisville,KY,40202,(502) 409-9525,Improv.Com
Laughing Derby At Comedy Crvn,1250 Bardstown Rd # 20,Louisville,KY,40204,(502) 459-0022,Comedycaravan.Com
Razzle Dazzle,741 Royal St,New Orleans,LA,70116,(504) 568-0001,
Barnstable Comedy Club,3171 Main St,Barnstable,MA,02630,(508) 362-1110,Barnstablecomedyclub.Org
Comedy Studio,1238 Massachusetts Ave,Cambridge,MA,02138,(617) 661-6507,
Dick Doherty Comedy,3 Unicorn Ave,Stoneham,MA,02180,(781) 938-8088,Dickdoherty.Com
Improv Asylum,216 Hanover St,Boston,MA,2113,(617) 263-6887,Improvasylum.Com
Improv Boston Theatre,40 Prospect St,Cambridge,MA,02139,(617) 576-1253,Improvboston.Com
Laugh Boston,425 Summer St,Boston,MA,02210,(617) 921-1897,Laughboston.Com
Mandarin House,948 Broadway,Saugus,MA,01906,(781) 233-0077,
Mystery Cafe Dinner Theater,161 Devonshire St,Boston,MA,02110,(617) 426-1999,Mysterycafe.Com
Nick's Comedy Stop,100 Warrenton St,Boston,MA,02116,(617) 482-0930,Nickscomedystop.Com
Pcm Events,68 Cabot St,Chicopee,MA,01013,(413) 478-6660,Cabotcomedy.Com
Wicked Comedy LLC,215 Hanover St,Boston,MA,02113,(617) 263-1300,Theshowagainsthumanity.Com
Wilbur Theatre,246 Tremont St,Boston,MA,02116,(617) 248-9700,Libera.Org
Annapolis Summer Garden,143 Compromise St,Annapolis,MD,21401,(410) 268-9212,Summergarden.Com
Baltimore Comedy Factory,5625 Odonnell St,Baltimore,MD,21224,(410) 649-1660,Baltimorecomedy.Com
Bowman Restaurant,9306 Harford Rd,Parkville,MD,21234,(410) 665-8600,Thebowmanrestaurant.Com
Certified Djs & Entertainment,10882 Demarr Rd,White Plains,MD,20695,(301) 843-9100,Certifieddjs.Com
Giggle Box Comedy Club,3134 Eastern Ave,Baltimore,MD,21224,(301) 265-6086,Thegiggleboxcomedyclub.Com
Laugh Riot At Positano,4948 Fairmont Ave,Bethesda,MD,20814,(301) 946-1102,Epositano.Com
Laugh Riot At The Hyatt,7400 Wisconsin Ave # One,Bethesda,MD,20814,(301) 946-1102,
Los Compadres,2427 Crain Hwy,Waldorf,MD,20601,(240) 222-3546,Taquerialoscompadresmd.Com
Magooby's Joke House,9603 Deereco Rd,Lutherville,MD,21093,(410) 252-2727,Magoobys.Com
Sully's Comedy Cellar,9306 Harford Rd,Parkville,MD,21234,(410) 665-8601,Sullyscomedycellar.Com
Improvacadia,75 Oak St,Ellsworth,ME,04605,(207) 288-2503,Improvacadia.Com
Ann Arbor Comedy Showcase,212 S 4th Ave,Ann Arbor,MI,48104,(734) 996-9080,Aacomedy.Com
Doctor Grins Comedy Club,20 Monroe Ave NW,Grand Rapids,MI,49503,(616) 356-2626,Thegilmorecollection.Com
Go Comedy! Improv Theater,261 E 9 Mile Rd,Ferndale,MI,48220,(248) 327-0575,Gocomedy.Net
Laff Tracks Comedy Club,30850 Beck Rd,Novi,MI,48377,(313) 694-3236,Lafftracksnovi.Com
Mark Ridley Comedy Castle,310 S Troy St,Royal Oak,MI,48067,(248) 542-9900,Comedycastle.Com
Punch Line Comedy Lounge,29555 Northwestern Hwy # 312,Southfield,MI,48034,(248) 996-9641,Punchlinecomedylounge.Com
River City Improv,61 Sheldon Ave SE,Grand Rapids,MI,49503,(616) 752-8570,Rivercityimprov.Com
Sips N Giggles,1840 S Old US Highway 23,Brighton,MI,48114,(810) 588-4305,
Washington Lanes,1205 Washington Ave,Bay City,MI,48708,(989) 893-1000,
Bnw Student Union,2605 Hennepin Ave,Minneapolis,MN,55408,(612) 332-6620,Studentunion.Bravenewworkshop.Com
Brave New Workshop,824 Hennepin Ave,Minneapolis,MN,55403,(612) 332-6620,Mindsetofdiscovery.Com
Cinema Grill Event Ctr,2749 Winnetka Ave N,New Hope,MN,55427,(763) 417-0017,Cinemagrill.Com
Comedysportz,3001 Hennepin Ave,Minneapolis,MN,55408,(612) 870-1230,Comedysportztc.Com
Goonie's Comedy Club,7 2nd St SW,Rochester,MN,55902,(507) 288-8130,Mcgoonstaxi.Com
Lee Consultants LTD,708 N 1st St,Minneapolis,MN,55401,(612) 338-6393,Acmecomedycompany.Com
Lounge At House Of Comedy,408 E Broadway,Bloomington,MN,55425,(952) 858-8558,Houseofcomedy.Net
Rick Bronson's House Of Comedy,408 E Broadway,Bloomington,MN,55425,(952) 858-8558,Moa.Houseofcomedy.Net
Sticks Restaurant At Acme,708 N 1st St # G31,Minneapolis,MN,55401,(612) 338-6393,Acmecomedycompany.Com
Backstreet Jazz & Blues Club,614 West Port Plz,Saint Louis,MO,63146,(314) 878-5800,Funnyboneusa.Com
Comedy City,3600 Broadway Blvd # 107,Kansas City,MO,64111,(816) 842-2744,
Funny Bone Comedy Club,614 West Port Plz,Saint Louis,MO,63146,(314) 469-6692,Stlouisfunnybone.Com
Helium Comedy-St Louis,1151 Saint Louis Galleria,Saint Louis,MO,63117,(314) 727-1260,
Improv Comedy Club,7260 NW 87th St,Kansas City,MO,64153,(816) 759-5233,Improvkc.Com
Kansas City's Best Comedians,1734 E 63rd St # 306,Kansas City,MO,64110,(816) 844-9798,
Moon City Improv,1330 N Douglas Ave,Springfield,MO,65802,(417) 343-2698,
Brewery Follies,200 E Cover St,Virginia City,MT,59755,(406) 843-5218,Breweryfollies.Net
Montana Comedy LLC,3844 Parkhill Dr,Billings,MT,59102,(406) 697-9800,Montanacomedy.Com
Comedy Club Of Outer Banks,1701 S Virginia Dare Trl,Kill Devil Hills,NC,27948,(252) 207-9950,Comedyclubobx.Com
Comedy WORX,431 W Peace St,Raleigh,NC,27603,(919) 829-0822,Comedyworx.Com
Comedy Zone,1126 S Holden Rd,Greensboro,NC,27407,(336) 333-1034,Comedyzoneworldwide.Com
Comedy Zone-Charlotte,900 NC Music Factory Blvd # B3,Charlotte,NC,28206,(980) 321-4702,Cltcomedyzone.Com
Dead Crow Comedy Club,265 N Front St # B,Wilmington,NC,28401,(910) 399-1492,Deadcrowcomedy.Com
Goodnight's Comedy Club,861 W Morgan St,Raleigh,NC,27603,(919) 828-5233,Goodnightscomedy.Com
Idiot Box,203 S Elm St # 101,Greensboro,NC,27401,(336) 274-2699,Idiotboxers.Com
Laughing Gas Comedy Club,2105 Peters Creek Pkwy,Winston Salem,NC,27127,(336) 608-2270,Laughingas.Net
Mojoe & Jacks,118 Hay St,Fayetteville,NC,28301,(910) 223-9898,
Unny Business Comedy Club,56 Patton Ave,Asheville,NC,28801,(828) 318-8678,Ashevillecomedy.Com
Funny Bone Comedy Club-Rstrnt,17305 Davenport St # 201,Omaha,NE,68118,(402) 493-8036,Omaha.Funnybone.Com
Legend Comics,5207 Leavenworth St,Omaha,NE,68106,(402) 391-2377,Legendcomicsandcoffee.Com
Headliners Comedy Club,700 Elm St,Manchester,NH,03101,(603) 988-3673,Northshorecomedy.Com
Catch A Rising Star,102 Carnegie Ctr,Princeton,NJ,08540,(609) 987-8018,Catcharisingstar.Com
Gemini Comedy Entrtn Corp,6 Commerce St,Somerville,NJ,08876,(908) 823-4647,Geminicomedy.Com
Sarcasm,934 US Highway 9,South Amboy,NJ,08879,(732) 727-2276,
Stress Factory Comedy Club,90 Church St,New Brunswick,NJ,08901,(732) 545-4242,Stressfactoryreservations.Com
Bonkerz Comedy Club,2411 W Sahara Ave,Las Vegas,NV,89102,(702) 367-2411,Bonkerzcomedyclub.Com
Electric Charging Station,407 N Virginia St,Reno,NV,89501,(775) 329-4777,Silverlegacyreno.Com
Jest Serendipity Improv,375 E Harmon Ave,Las Vegas,NV,89169,(702) 769-4267,Jestserendipity.Com
Mirage Hotel & Casino,3400 Las Vegas Blvd S,Las Vegas,NV,89109,(702) 791-7111,Mgmresorts.Com
Rich Little Productions,9030 W Sahara Ave # 445,Las Vegas,NV,89117,(702) 889-1828,
Second City,3555 Las Vegas Blvd S,Las Vegas,NV,89109,(702) 733-3111,Secondcity.Com
Spearmint Rhino,3340 S Highland Dr,Las Vegas,NV,89109,(702) 796-3600,Spearmintrhinolv.Com
Tahoe Comedy North,100 S Virginia St,Reno,NV,89501,(775) 322-5233,Renotahoecomedy.Com
American Comedy Institute,481 8th Ave # 548,New York,NY,10001,(212) 279-6980,Comedyinstitute.Com
Best Comedy Tickets,128 Macdougal St,New York,NY,10012,(646) 934-6365,Bestcomedytickets.Com
Broadway Comedy Club,218 W 53rd St,New York,NY,10019,(212) 757-2323,Broadwaycomedyclub.Com
Broadway Comedy Club,318 W 53rd St,New York,NY,10019,(212) 757-2323,Broadwaycomedyclub.Com
Buffalo Comedysportz,4476 Main St,Amherst,NY,14226,(716) 725-6140,Buffalocomedyclub.Com
Bust Out Laughing Inc,301 W 130th St # 4d,New York,NY,10027,Not Available,
Carnegie Hall,W 57th St & 7th Ave,New York,NY,10019,(212) 247-7800,Carnegiehall.Org
Carolines On Broadway,1626 Broadway # 1,New York,NY,10019,(212) 757-4100,Carolines.Com
Chicago City Limits Performing,46 W 96th St # 4w,New York,NY,10025,(212) 888-5233,Chicagocitylimits.Com
Comedy Bar NYC,134 W 29th St,New York,NY,10001,(212) 714-2222,Pioneersbar.Com
Comedy Cellar Classes,117 Macdougal St # B,New York,NY,10012,(212) 254-3480,Comedycellar.Com
Comic Strip Live Comedy Club,1568 2nd Ave,New York,NY,10028,(212) 861-9386,
Dangerfields,1118 1st Ave # 10,New York,NY,10065,(212) 593-1650,Dangerfieldscomedyclub.Com
Eastville Comedy Club,85 E 4th St,New York,NY,10003,(212) 260-2445,Eastvillecomedy.Com
Eight Is Never Enough Improv,318 W 53rd St,New York,NY,10019,(212) 568-6560,Eightimprov.Biz
Funny Bone Club & Restaurant,1 Crossgates Mall Rd # K-206,Albany,NY,12203,(518) 313-7484,Albany.Funnybone.Com
Funny Bone Club & Restaurant,120 Washington Avenue Ext,Albany,NY,12203,(518) 313-7484,
Funnybone Comedy Club,1 Destiny Usa Dr,Syracuse,NY,13204,(315) 423-8669,Syracusefunnybone.Com
Gotham Comedy Club,208 W 23rd St # 1,New York,NY,10011,(212) 367-9000,Gothamcomedyclub.Com
Governor's Comedy @ The Brkrg,2797 Merrick Rd,Bellmore,NY,11710,(516) 781-5233,Brokeragecomedy.Com
Governor's Comedy Clubs,90 Division Ave # A,Levittown,NY,11756,(516) 731-3358,Ning.Com
Governors Comedy Club,90a Division Ave,Levittown,NY,11756,(516) 731-0254,
Gramercy Group,125 Hopper St,Westbury,NY,11590,(516) 280-5478,Gramercygroupinc.Com
Greenwich Village Comedy Club,99 Macdougal St,New York,NY,10012,(212) 777-5233,Greenwichvillagecomedyclub.Com
Grisly Pear Bar & Grill,107 Macdougal St,New York,NY,10012,(212) 529-3808,Grislypear.Com
Ha-Gene Inc,2361 Central Park Ave,Yonkers,NY,10710,(914) 346-8000,Hacomedy.Com
Helium Comedy-Buffalo,30 Mississippi St,Buffalo,NY,14203,(716) 853-1211,Buffalo.Heliumcomedy.Com
Jokerz Wild Comedy Club,333 S Service Rd,Plainview,NY,11803,(516) 830-1945,Jokerzwildcomedyclub.Com
Laughing Buddha Comedy Inc,131 Essex St,New York,NY,10002,(212) 982-6363,Laughingbuddhacomedy.Com
Levity Live Comedy CLUB,4232 Palisades Center Dr,West Nyack,NY,10994,(845) 353-5400,Levitylive.Com
Loony Bin,141 E Service Rd,Staten Island,NY,10314,(718) 370-6151,Looneybincomedyclubsi.Com
Magnet Theater,254 W 29th St,New York,NY,10001,(212) 244-8824,
Mcguire's Comedy Club & Rstrt,1627 Smithtown Ave,Bohemia,NY,11716,(631) 467-5413,Mcguirescomedyshows.Com
New York Comedy Club,241 E 24th St # A,New York,NY,10010,(212) 696-5233,Newyorkcomedyclub.Com
Peoples Improvisational Thtr,123 E 24th St,New York,NY,10010,(212) 563-7488,Broadwaybirthdaybashes.Com
Punch Line Comedy Club,220 W 42nd St,New York,NY,10036,(415) 397-7573,Punchlinecomedyclub.Com
Stand Restaurant & Comedy Club,239 3rd Ave # A,New York,NY,10003,(212) 677-2600,Thestandnyc.Com
Stand Up Ny,236 W 78th St,New York,NY,10024,(212) 595-0850,Standupny.Com
Stand-Up New York Comedy Club,236 W 78th St,New York,NY,10024,(212) 595-0850,Standupny.Com
Standing Room,4738 Vernon Blvd,Long Island City,NY,11101,(347) 309-7666,Standingroomlic.Com
Times Care,669 8th Ave,New York,NY,10036,(212) 586-7829,Nytimes.Com
Upright Citizens Brigade East,153 E 3rd St,New York,NY,10009,(212) 366-9231,East.Ucbtheatre.Com
Upright Citizens Brigade Thtr,266 W 37th St # 12,New York,NY,10018,(212) 366-9176,Ucbtheatre.Com
Upright Citizens Brigade Thtr,555 W 42nd St,New York,NY,10036,(212) 366-9176,Hellskitchen.Ucbtheatre.Com
Village Idiots Improv Comedy,1199 E Main St,Rochester,NY,14609,(585) 797-9086,Improvvip.Com
West Side Comedy Club,201 W 75th St,New York,NY,10023,(646) 973-1300,Westsidecomedyclub.Com
Columbus Funny Bone,145 Easton Town Ctr,Columbus,OH,43219,(614) 471-5653,Columbus.Funnybone.Com
Conservatory For Performing,6622 Wilson Mills Rd,Mayfield Village,OH,44143,(440) 471-1045,
Funny Bone Comedy Club,7518 Bales St # A-120,Liberty Township,OH,45069,(513) 779-5233,Funnybone.Com
Funny Bone Comedy Club,6140 Levis Commons Blvd,Perrysburg,OH,43551,(419) 931-3474,Funnybone.Com
Funny Bone Comedy Club-Rstrnt,88 Plum St # 200,Beavercreek,OH,45440,(937) 429-5233,Dayton.Funnybone.Com
Funny Bone Comedy Club-Rstrnt,88 Plum St # 200,Beavercreek,OH,45440,(937) 429-5233,Daytonfunnybone.Com
Funny Stop Comedy Club,1757 State Rd,Cuyahoga Falls,OH,44223,(330) 923-4700,
Improv Comedy Club,1148 Main Ave # 500,Cleveland,OH,44113,(216) 696-4677,Clevelandimprov.Com
Improv Comedy Club,2000 Sycamore St,Cleveland,OH,44113,(216) 696-4677,
Laffs Inc,3922 Secor Rd,Toledo,OH,43623,(419) 214-0700,Laffsinc.Com
Liberty Center,7100 Foundry Row # 204,Liberty Township,OH,45069,(513) 644-0900,Malllibertytownshipoh.Com
Ohio Comedy LLC,9174 Heather Ln,Dayton,OH,45458,Not Available,
Shadowbox Live,503 S Front St # 260,Columbus,OH,43215,(614) 416-7625,Shadowboxlive.Org
Wiley's Comedy Niteclub,101 Pine St # 100,Dayton,OH,45402,(937) 224-5653,Wileyscomedyclub.Com
Comedy Clinic,1216 E Kenosha St Pmb 322,Broken Arrow,OK,74012,(918) 928-7161,
Loony Bin Comedy Club,8503 N Rockwell Ave,Oklahoma City,OK,73132,(405) 239-4242,Loonybincomedy.Com
Loony Bin Comedy Club,6808 S Memorial Dr # 234,Tulsa,OK,74133,(918) 392-5653,Loonybincomedy.Com
Harvey's Comedy Club & Rstrnt,436 NW 6th Ave,Portland,OR,97209,(503) 241-0338,Harveyscomedyclub.Com
Helium Comedy-Portland,1510 SE 9th Ave,Portland,OR,97214,(215) 496-9001,Heliumcomedy.Com
1836 Saloon,2605 Milford Rd,East Stroudsburg,PA,18301,(570) 664-6500,
Comedy Cabaret Comedy Club,625 N Main St # B,Doylestown,PA,18901,(215) 345-5653,Comedycabaret.Com
Comedy Cabaret Northeast Phlly,11580 Roosevelt Blvd,Philadelphia,PA,19116,(215) 676-5653,Comedycabaret.Com
Comedy Works Bristol,1320 Newport Rd,Bristol,PA,19007,(215) 741-1661,Comedyworksbristol.Com
Comedysportz Group,2030 Sansom St,Philadelphia,PA,19103,(484) 450-8089,Comedysportzphilly.Com
Funny Farm Comedy Club,3377 New Castle Rd,West Middlesex,PA,16159,(724) 906-6164,
Harrisburg Comedy Zone,110 Limekiln Rd # 2,New Cumberland,PA,17070,(717) 920-5653,Harrisburgcomedyzone.Com
Helium Comedy-Philadelphia,2031 Sansom St,Philadelphia,PA,19103,(215) 496-9001,Heliumcomedy.Com
Improv Comedy Club,166 E Bridge St,Homestead,PA,15120,(412) 462-5233,Improv.Com
N Crowd,257 N 3rd St,Philadelphia,PA,19106,(215) 253-4276,Phillyncrowd.Com
Philly Improv Theater-Phit,2030 Sansom St,Philadelphia,PA,19103,(267) 233-1556,Phitsites.Com
Pocos Restaurant,625 N Main St # B,Doylestown,PA,18901,(215) 348-3424,Pocos.Com
Reading Comedy Outlet,801 Hiesters Ln,Reading,PA,19605,(610) 373-4242,Readingcomedyoutlet.Com
Wise Crackers Comedy Clubs,210 Bear Run Dr,Drums,PA,18222,(570) 788-8451,Wisecrackers.Biz
Comedy Connection,39 Warren Ave,East Providence,RI,02914,(401) 438-8383,Ricomedyconnection.Com
Carolina Comedy Club,1318 Celebrity Cir # Cs8,Myrtle Beach,SC,29577,(843) 839-2565,Carolinacomedyclub.Com
Comedy Cabana,9588 N Kings Hwy,Myrtle Beach,SC,29572,(843) 449-4242,Comedycabana.Com
Comedy House,2768 Decker Blvd # 100d,Columbia,SC,29206,(803) 798-9898,Comedyhouse.Us
Comedy Zone,221 N Main St,Greenville,SC,29601,(864) 603-1583,Greenvillecomedyzone.Com
Fat Daddy's Comedy Club,224 S Phillips Ave,Sioux Falls,SD,57104,(605) 274-6555,Jonwilsoncomedy.Com
Chuckles Comedy House,1770 Dexter Springs Loop,Cordova,TN,38016,(901) 421-5905,Chucklescomedyhouse.Com
Comedy Catch,1400 Market St,Chattanooga,TN,37402,(423) 629-2233,Thecomedycatch.Com
Comedy Catch,3224 Brainerd Rd,Chattanooga,TN,37411,(423) 629-2233,Thecomedycatch.Com
Third Coast Comedy LLC,1310 Clinton St # 121,Nashville,TN,37203,(615) 745-1009,Thirdcoaststore.Com
Zanies Comedy Night Club,2025 8th Ave S,Nashville,TN,37204,(615) 269-0221,Zanies.Com
Addison Comedy Club,4980 Belt Line Rd # 250,Dallas,TX,75254,(972) 404-8502,Improvaddison.Com
Arlington Improv Comedy,309 Curtis Mathes Way # 147,Arlington,TX,76018,(972) 404-8501,
Backdoor Comedy,8250 N Central Expy,Dallas,TX,75206,(214) 328-4444,
Cap City Comedy Club,8120 Research Blvd # 100,Austin,TX,78758,(512) 467-2333,Capcitycomedy.Com
Chuckles Comedy Club,617 N Mesquite St,Corpus Christi,TX,78401,(361) 434-4290,
Coldtowne Theater,4803 Airport Blvd # C,Austin,TX,78751,(512) 814-8696,Coldtownetheater.Com
Comedy Guys Entertainment,,Highlands,TX,77562,(281) 426-6339,Comedyguys.Com
Cowboys Dancehall,3030 NE Loop 410 # I-35,San Antonio,TX,78218,(210) 646-0649,Cowboysdancehall.Com
Dallas Comedy House,3025 Main St,Dallas,TX,75226,(214) 741-4448,Dallascomedyhouse.Com
Esther's Follies,525 E 6th St,Austin,TX,78701,(512) 320-0553,Esthersfollies.Com
Four Day Weekend,312 Houston St,Fort Worth,TX,76102,(682) 224-2122,Fourdayweekend.Com
Hideout Coffeehouse,617 Congress Ave,Austin,TX,78701,(512) 443-3688,Hideouttheatre.Com
Hyena's Comedy Night Club,1941 Preston Rd # 1030,Plano,TX,75093,(972) 380-5233,Hyenascomedynightclub.Com
Hyenas Comedy Night Club,425 Commerce St,Fort Worth,TX,76102,(817) 877-5233,
Improv Comedy Club,7620 Katy Fwy # 455,Houston,TX,77024,(713) 333-8800,Improvhouston.Com
Improv Comedy Theater,7620 Katy Fwy # 431,Houston,TX,77024,(713) 333-8800,Improvhouston.Com
Improv Comedy Theatre & Rstrnt,4980 Belt Line Rd # 250,Dallas,TX,75254,(972) 404-8501,
Joke Comdey Showcase,45 S Suquia St #300,Houston,TX,77089,(281) 481-0777,Jokejointcomedyshowcase.Com
Joke Joint Comedy Showcase,11460 Fuqua St # 300,Houston,TX,77089,(281) 481-1188,
Kelly Wick Clean Comedy,2501 Ohio Dr # 224,Plano,TX,75093,(214) 402-3874,
Kelly Wick Clean Comedy,8101 Towne Main Dr # 924,Plano,TX,75024,(214) 402-3874,
Laff Spot,8220 Louetta Rd # 140,Spring,TX,77379,(281) 655-7777,Laffspot.Com
Laugh Out Loud,3684 College St,Beaumont,TX,77701,(409) 347-7649,
Laugh Out Loud,618 NW Loop 410,San Antonio,TX,78216,(210) 541-8805,Lolsanantonio.Com
Laughing Spot,119 N 1st St,Lufkin,TX,75901,(936) 668-2753,Thelaughingspot.Com
New Movement,1819 Rosewood Ave,Austin,TX,78702,(806) 340-3718,Improvwins.Com
Oaklawn Opry,2729 New Boston Rd # 124,Texarkana,TX,75501,(903) 838-3333,Oaklawnopry.Info
Rivercenter Comedy Club,849 E Commerce St # 893,San Antonio,TX,78205,(210) 229-1420,Rivercentercomedyclub.Com
Zingerz Comedy Club,2304 W Park Row Dr # 27,Pantego,TX,76013,(817) 609-1715,Zingerzcomedyclub.Com
Comedy Sportz,279 N 1120 E,Orem,UT,84097,(801) 377-9700,
Wiseguys Comedy Cafe,269 25th St,Ogden,UT,84401,(801) 622-5588,Wiseguyscomedy.Com
Wiseguys Comedy Club,2194 W 3500 S,Salt Lake City,UT,84119,(801) 463-2909,
Arlington Cinema & Drafthouse,2903 Columbia Pike,Arlington,VA,22204,(703) 486-2345,Arlingtondrafthouse.Com
Brewhaha Comedy Tours,2421 Bowland Pkwy # 104-1,Virginia Beach,VA,23454,(757) 707-8131,Brewhahatours.Com
Comedy Zone Dc,300 Army Navy Dr,Arlington,VA,22202,(703) 544-5315,Tasteourlaughter.Com
Comedysportz Improv Theatre,8906 W Broad St,Richmond,VA,23294,(804) 266-9377,Thelessonsoflaughter.Com
Csz Richmond,8906 W Broad St # H,Richmond,VA,23294,(804) 266-9377,Cszrichmond.Com
Funny Bone Comedy Club,11800 W Broad St # 1090,Richmond,VA,23233,(804) 521-8900,Funnybone.Com
Rightnow LLC,11047 Pierson Dr # D,Fredericksburg,VA,22408,(540) 479-2219,Plumbingrightnow.Com
Virginia Beach Funny Bone,217 Central Park Ave,Virginia Beach,VA,23462,(757) 213-5555,Fatfishorlando.Com
Vermont Comedy Club,101 Main St,Burlington,VT,05401,(802) 859-0100,Vermontcomedyclub.Com
Comedy Underground,109 S Washington St,Seattle,WA,98104,(206) 628-0303,Seattlecomedycompetition.Biz
Main Street Comedy Club,113 E Main St,Auburn,WA,98002,(253) 397-4285,
Parlor Live Comedy Club,700 Bellevue Way NE # 300,Bellevue,WA,98004,(425) 289-7000,Parlorlivecomedyclub.Com
Smooth Groove Productions,22214 46th Ave S,Kent,WA,98032,(253) 437-2099,Smoothgroove.Net
Tacoma Comedy Club,933 Market St,Tacoma,WA,98402,(253) 282-7203,Tacomacomedyclub.Com
Unexpected Productions,1428 Post Aly,Seattle,WA,98101,(206) 587-2414,Unexpectedproductions.Org
Zanies Spokane,1214 W Knox Ave,Spokane,WA,99205,(509) 326-8400,Spokanezanies.Com
Broadway Theatre Ctr,158 N Broadway # 600,Milwaukee,WI,53202,(414) 291-7811,Skylightmusictheatre.Org
Camelot Catering & Banquet,11400 W Silver Spring Rd,Milwaukee,WI,53225,(414) 431-4215,Silkexotic.Com
Comedy City,500 Grant St,De Pere,WI,54115,(920) 983-0966,Thegreenroomonline.Com
Comedy Club On State,202 State St # Ll,Madison,WI,53703,(608) 256-0099,Madisoncomedy.Com
Comedysportz,420 S 1st St,Milwaukee,WI,53204,(414) 272-8888,Cszmke.Com
Marvellous Entertainment,3904 E Cudahy Ave,Cudahy,WI,53110,(414) 736-4378,
Notting Hill Games,706 Notting Hill Way,Madison,WI,53718,(608) 561-1290,
Skyline Comedy Cafe,1004 S Olde Oneida St # 3r,Appleton,WI,54915,(920) 734-5653,Skylinecomedy.Com